{
    "links": {
        "self": "http://www.neowsapp.com/rest/v1/neo/3550305?api_key=iIulBulltgU6a56xZRHN4H3l9WmuAYTsLGpBGhQ2"
    },
    "id": "3550305",
    "neo_reference_id": "3550305",
    "name": "(2010 VJ1)",
    "designation": "2010 VJ1",
    "nasa_jpl_url": "http://ssd.jpl.nasa.gov/sbdb.cgi?sstr=3550305",
    "absolute_magnitude_h": 24.1,
    "estimated_diameter": {
        "kilometers": {
            "estimated_diameter_min": 0.040230458,
            "estimated_diameter_max": 0.0899580388
        },
        "meters": {
            "estimated_diameter_min": 40.2304579834,
            "estimated_diameter_max": 89.9580388169
        },
        "miles": {
            "estimated_diameter_min": 0.0249980399,
            "estimated_diameter_max": 0.0558973165
        },
        "feet": {
            "estimated_diameter_min": 131.9896957704,
            "estimated_diameter_max": 295.1379320721
        }
    },
    "is_potentially_hazardous_asteroid": false,
    "close_approach_data": [
        {
            "close_approach_date": "2010-05-23",
            "close_approach_date_full": "2010-May-23 11:55",
            "epoch_date_close_approach": 1274615700000,
            "relative_velocity": {
                "kilometers_per_second": "10.8451078507",
                "kilometers_per_hour": "39042.3882623573",
                "miles_per_hour": "24259.4217511297"
            },
            "miss_distance": {
                "astronomical": "0.4301654221",
                "lunar": "167.3343491969",
                "kilometers": "64351830.893810927",
                "miles": "39986373.5246357126"
            },
            "orbiting_body": "Earth"
        },
        {
            "close_approach_date": "2010-10-27",
            "close_approach_date_full": "2010-Oct-27 08:20",
            "epoch_date_close_approach": 1288167600000,
            "relative_velocity": {
                "kilometers_per_second": "14.0699929073",
                "kilometers_per_hour": "50651.9744664017",
                "miles_per_hour": "31473.167134415"
            },
            "miss_distance": {
                "astronomical": "0.0817552617",
                "lunar": "31.8027968013",
                "kilometers": "12230413.011612579",
                "miles": "7599626.2460644302"
            },
            "orbiting_body": "Earth"
        }
    ],
    "orbital_data": {
        "orbit_id": "8",
        "orbit_determination_date": "2017-04-06 08:55:56",
        "first_observation_date": "2010-11-03",
        "last_observation_date": "2010-11-12",
        "data_arc_in_days": 9,
        "observations_used": 20,
        "orbit_uncertainty": "8",
        "minimum_orbit_intersection": ".0797106",
        "jupiter_tisserand_invariant": "4.507",
        "epoch_osculation": "2455505.5",
        "eccentricity": ".3609192537743665",
        "semi_major_axis": "1.452920168464914",
        "inclination": "20.12248098478506",
        "ascending_node_longitude": "220.7581691995991",
        "orbital_period": "639.677471037448",
        "perihelion_distance": ".9285333054688306",
        "perihelion_argument": "114.8342975546767",
        "aphelion_distance": "1.977307031460998",
        "perihelion_time": "2455448.739277543021",
        "mean_anomaly": "31.9440046112179",
        "mean_motion": ".5627836156495262",
        "equinox": "J2000",
        "orbit_class": {
            "orbit_class_type": "APO",
            "orbit_class_description": "Near-Earth asteroid orbits which cross the Earth’s orbit similar to that of 1862 Apollo",
            "orbit_class_range": "a (semi-major axis) > 1.0 AU; q (perihelion) < 1.017 AU"
        }
    },
    "is_sentry_object": false
}